ROCK                    
1 60474U 24149G   26117.20430363  .00018622  00000+0  49623-3 0  9994
2 60474  97.3774 200.2510 0003050  89.2436 270.9159 15.38215975 94428
CONNECTA IOT-3          
1 60475U 24149H   26117.20969885  .00005353  00000+0  22958-3 0  9990
2 60475  97.3744 194.1435 0004666  89.7263 270.4509 15.23146683 94045
QUBE                    
1 60476U 24149J   26117.16964991  .00031733  00000+0  67692-3 0  9994
2 60476  97.3775 202.7155 0002890  82.5708 277.5869 15.44831853 94586
WREN-1                  
1 60478U 24149L   26117.20974613  .00026580  00000+0  67608-3 0  9994
2 60478  97.3766 200.8669 0005637  93.4416 266.7474 15.39564196 94473
TOMORROW-S1             
1 60479U 24149M   26117.20118494  .00009316  00000+0  30393-3 0  9991
2 60479  97.3754 197.8624 0004187  82.4464 277.7253 15.31997042 94285
FLOCK 4BE-18            
1 60480U 24149N   26116.78220157  .00023270  00000+0  58054-3 0  9994
2 60480  97.3729 200.0410 0005022  92.3220 267.8601 15.40184890 94396
FLOCK 4BE-7             
1 60481U 24149P   26117.18591167  .00028029  00000+0  74497-3 0  9998
2 60481  97.3764 199.9044 0004192  96.6265 263.5457 15.38208812 94400
FLOCK 4BE-26            
1 60484U 24149S   26117.18119914  .00177078  00000+0  25398-2 0  9991
2 60484  97.3685 201.1251 0002711 143.1035 217.0406 15.55522524 94506
TOMORROW-S2             
1 60485U 24149T   26117.16696206  .00010257  00000+0  33425-3 0  9990
2 60485  97.3820 198.2696 0004569  97.3862 262.7899 15.32003829 94272
FLOCK 4BE-36            
1 60486U 24149U   26116.78324761  .00021694  00000+0  52562-3 0  9992
2 60486  97.3743 200.6617 0005134 100.3400 259.8425 15.41088388 94433
FLOCK 4BE-25            
1 60487U 24149V   26117.21442906  .00018036  00000+0  49195-3 0  9998
2 60487  97.3800 200.0723 0003691  96.6365 263.5300 15.37497713 94405
FLOCK 4BE-31            
1 60488U 24149W   26116.78881905  .00025354  00000+0  59308-3 0  9994
2 60488  97.3800 201.3927 0004049 104.0292 256.1406 15.42123519 94453
FLOCK 4BE-20            
1 60489U 24149X   26116.69619466  .00018030  00000+0  50456-3 0  9994
2 60489  97.3702 198.5615 0005255  98.8363 261.3476 15.36692667 94302
FLOCK 4BE-23            
1 60490U 24149Y   26117.19521612  .00015632  00000+0  44289-3 0  9999
2 60490  97.3781 199.4093 0005099 103.7132 256.4680 15.36339639 94362
FLOCK 4BE-15            
1 60491U 24149Z   26116.71263786  .00125415  00000+0  22945-2 0  9997
2 60491  97.3713 200.5940 0005512 172.3391 187.7945 15.48882224 94436
FLOCK 4BE-17            
1 60492U 24149AA  26117.18096124  .00020952  00000+0  55660-3 0  9991
2 60492  97.3778 200.2073 0004433  96.1448 264.0302 15.38282318 94410
NUSAT-50 (NANCY ROMAN)  
1 60493U 24149AB  26117.20043157  .00011605  00000+0  41494-3 0  9998
2 60493  97.3791 198.8463 0003914  43.4118 316.7429 15.28961669 94331
